{
  "type": "FeatureCollection",
  "features": [
    {
      "type": "Feature",
      "properties": {
        "norad_id": 35793,
        "name": "COSMOS 2251 DEB",
        "group": "cosmos-2251-debris",
        "lat": 60.44495084835423,
        "lon": -157.99242376880838,
        "alt_km": 625.2113512142641,
        "timestamp": "2025-12-16T17:51:11.329055+00:00",
        "meta_object_name": "COSMOS 2251 DEB",
        "meta_object_id": "1993-036ASP",
        "meta_epoch": "2025-12-13T21:40:35.178816",
        "meta_mean_motion": 14.78725725,
        "meta_eccentricity": 0.00024095,
        "meta_inclination": 74.041,
        "meta_ra_of_asc_node": 57.8966,
        "meta_arg_of_pericenter": 115.747,
        "meta_mean_anomaly": 3.1573,
        "meta_ephemeris_type": 0,
        "meta_classification_type": "U",
        "meta_norad_cat_id": 35793,
        "meta_element_set_no": 999,
        "meta_rev_at_epoch": 65814,
        "meta_bstar": 0.001778655,
        "meta_mean_motion_dot": 0.0001305,
        "meta_mean_motion_ddot": 0,
        "tle_line1": "1 35793U 93036ASP 25347.90318494  .00013050  00000+0  17787-2 0  9997",
        "tle_line2": "2 35793  74.0410  57.8966 0002409 115.7470   3.1573 14.78725725658147"
      },
      "geometry": {
        "type": "Point",
        "coordinates": [
          -157.99242376880838,
          60.44495084835423
        ]
      }
    },
    {
      "type": "Feature",
      "properties": {
        "norad_id": 35824,
        "name": "COSMOS 2251 DEB",
        "group": "cosmos-2251-debris",
        "lat": -72.703435184688,
        "lon": -26.63578074150498,
        "alt_km": 1095.459340517269,
        "timestamp": "2025-12-16T17:51:11.329066+00:00",
        "meta_object_name": "COSMOS 2251 DEB",
        "meta_object_id": "1993-036ASW",
        "meta_epoch": "2025-12-15T12:52:37.053408",
        "meta_mean_motion": 13.88430476,
        "meta_eccentricity": 0.02484305,
        "meta_inclination": 73.8468,
        "meta_ra_of_asc_node": 43.9833,
        "meta_arg_of_pericenter": 129.6204,
        "meta_mean_anomaly": 232.7142,
        "meta_ephemeris_type": 0,
        "meta_classification_type": "U",
        "meta_norad_cat_id": 35824,
        "meta_element_set_no": 999,
        "meta_rev_at_epoch": 84266,
        "meta_bstar": 0.00076644061,
        "meta_mean_motion_dot": 1.153e-05,
        "meta_mean_motion_ddot": 0,
        "tle_line1": "1 35824U 93036ASW 25349.53653997  .00001153  00000+0  76644-3 0  9992",
        "tle_line2": "2 35824  73.8468  43.9833 0248430 129.6204 232.7142 13.88430476842666"
      },
      "geometry": {
        "type": "Point",
        "coordinates": [
          -26.63578074150498,
          -72.703435184688
        ]
      }
    },
    {
      "type": "Feature",
      "properties": {
        "norad_id": 35825,
        "name": "COSMOS 2251 DEB",
        "group": "cosmos-2251-debris",
        "lat": 36.89602546717451,
        "lon": 148.40410373292727,
        "alt_km": 1246.704416748048,
        "timestamp": "2025-12-16T17:51:11.329076+00:00",
        "meta_object_name": "COSMOS 2251 DEB",
        "meta_object_id": "1993-036ASX",
        "meta_epoch": "2025-12-14T02:36:29.406816",
        "meta_mean_motion": 13.70963524,
        "meta_eccentricity": 0.03526119,
        "meta_inclination": 74.113,
        "meta_ra_of_asc_node": 140.3902,
        "meta_arg_of_pericenter": 235.9093,
        "meta_mean_anomaly": 120.8102,
        "meta_ephemeris_type": 0,
        "meta_classification_type": "U",
        "meta_norad_cat_id": 35825,
        "meta_element_set_no": 999,
        "meta_rev_at_epoch": 82527,
        "meta_bstar": 0.0023333684,
        "meta_mean_motion_dot": 3.214e-05,
        "meta_mean_motion_ddot": 0,
        "tle_line1": "1 35825U 93036ASX 25348.10867369  .00003214  00000+0  23334-2 0  9992",
        "tle_line2": "2 35825  74.1130 140.3902 0352611 235.9093 120.8102 13.70963524825277"
      },
      "geometry": {
        "type": "Point",
        "coordinates": [
          148.40410373292727,
          36.89602546717451
        ]
      }
    },
    {
      "type": "Feature",
      "properties": {
        "norad_id": 35829,
        "name": "COSMOS 2251 DEB",
        "group": "cosmos-2251-debris",
        "lat": -0.9531991737745255,
        "lon": 90.68720141109488,
        "alt_km": 646.9403122779713,
        "timestamp": "2025-12-16T17:51:11.329086+00:00",
        "meta_object_name": "COSMOS 2251 DEB",
        "meta_object_id": "1993-036ATB",
        "meta_epoch": "2025-12-14T00:48:22.506048",
        "meta_mean_motion": 14.76339353,
        "meta_eccentricity": 0.00060216,
        "meta_inclination": 74.0232,
        "meta_ra_of_asc_node": 96.2701,
        "meta_arg_of_pericenter": 150.1263,
        "meta_mean_anomaly": 210.0256,
        "meta_ephemeris_type": 0,
        "meta_classification_type": "U",
        "meta_norad_cat_id": 35829,
        "meta_element_set_no": 999,
        "meta_rev_at_epoch": 87794,
        "meta_bstar": 0.0017696749,
        "meta_mean_motion_dot": 0.00012277,
        "meta_mean_motion_ddot": 0,
        "tle_line1": "1 35829U 93036ATB 25348.03359382  .00012277  00000+0  17697-2 0  9993",
        "tle_line2": "2 35829  74.0232  96.2701 0006021 150.1263 210.0256 14.76339353877944"
      },
      "geometry": {
        "type": "Point",
        "coordinates": [
          90.68720141109488,
          -0.9531991737745255
        ]
      }
    },
    {
      "type": "Feature",
      "properties": {
        "norad_id": 35830,
        "name": "COSMOS 2251 DEB",
        "group": "cosmos-2251-debris",
        "lat": -73.81330984131229,
        "lon": 165.03326928087895,
        "alt_km": 753.2928434097339,
        "timestamp": "2025-12-16T17:51:11.329097+00:00",
        "meta_object_name": "COSMOS 2251 DEB",
        "meta_object_id": "1993-036ATC",
        "meta_epoch": "2025-12-14T12:19:34.493088",
        "meta_mean_motion": 14.23999153,
        "meta_eccentricity": 0.01219147,
        "meta_inclination": 73.8627,
        "meta_ra_of_asc_node": 263.2082,
        "meta_arg_of_pericenter": 231.1991,
        "meta_mean_anomaly": 127.8218,
        "meta_ephemeris_type": 0,
        "meta_classification_type": "U",
        "meta_norad_cat_id": 35830,
        "meta_element_set_no": 999,
        "meta_rev_at_epoch": 61289,
        "meta_bstar": 0.0011142473,
        "meta_mean_motion_dot": 2.736e-05,
        "meta_mean_motion_ddot": 0,
        "tle_line1": "1 35830U 93036ATC 25348.51359367  .00002736  00000+0  11142-2 0  9999",
        "tle_line2": "2 35830  73.8627 263.2082 0121914 231.1991 127.8218 14.23999153612892"
      },
      "geometry": {
        "type": "Point",
        "coordinates": [
          165.03326928087895,
          -73.81330984131229
        ]
      }
    },
    {
      "type": "Feature",
      "properties": {
        "norad_id": 35834,
        "name": "COSMOS 2251 DEB",
        "group": "cosmos-2251-debris",
        "lat": -50.19364851723653,
        "lon": -82.81737951401553,
        "alt_km": 923.7124715850969,
        "timestamp": "2025-12-16T17:51:11.329107+00:00",
        "meta_object_name": "COSMOS 2251 DEB",
        "meta_object_id": "1993-036ATG",
        "meta_epoch": "2025-12-14T22:12:13.860288",
        "meta_mean_motion": 14.12983028,
        "meta_eccentricity": 0.01092939,
        "meta_inclination": 73.9319,
        "meta_ra_of_asc_node": 300.6514,
        "meta_arg_of_pericenter": 100.3352,
        "meta_mean_anomaly": 319.5406,
        "meta_ephemeris_type": 0,
        "meta_classification_type": "U",
        "meta_norad_cat_id": 35834,
        "meta_element_set_no": 999,
        "meta_rev_at_epoch": 66294,
        "meta_bstar": 0.00039555683,
        "meta_mean_motion_dot": 7.56e-06,
        "meta_mean_motion_ddot": 0,
        "tle_line1": "1 35834U 93036ATG 25348.92516042  .00000756  00000+0  39556-3 0  9993",
        "tle_line2": "2 35834  73.9319 300.6514 0109293 100.3352 319.5406 14.12983028662947"
      },
      "geometry": {
        "type": "Point",
        "coordinates": [
          -82.81737951401553,
          -50.19364851723653
        ]
      }
    },
    {
      "type": "Feature",
      "properties": {
        "norad_id": 35835,
        "name": "COSMOS 2251 DEB",
        "group": "cosmos-2251-debris",
        "lat": 7.066084643110352,
        "lon": 79.677393430276,
        "alt_km": 1088.9032189049267,
        "timestamp": "2025-12-16T17:51:11.329118+00:00",
        "meta_object_name": "COSMOS 2251 DEB",
        "meta_object_id": "1993-036ATH",
        "meta_epoch": "2025-12-14T02:32:38.290272",
        "meta_mean_motion": 13.82885991,
        "meta_eccentricity": 0.02905018,
        "meta_inclination": 74.0643,
        "meta_ra_of_asc_node": 266.1402,
        "meta_arg_of_pericenter": 47.4139,
        "meta_mean_anomaly": 315.1102,
        "meta_ephemeris_type": 0,
        "meta_classification_type": "U",
        "meta_norad_cat_id": 35835,
        "meta_element_set_no": 999,
        "meta_rev_at_epoch": 61718,
        "meta_bstar": 0.0018908593,
        "meta_mean_motion_dot": 2.83e-05,
        "meta_mean_motion_ddot": 0,
        "tle_line1": "1 35835U 93036ATH 25348.10599873  .00002830  00000+0  18909-2 0  9990",
        "tle_line2": "2 35835  74.0643 266.1402 0290501  47.4139 315.1102 13.82885991617186"
      },
      "geometry": {
        "type": "Point",
        "coordinates": [
          79.677393430276,
          7.066084643110352
        ]
      }
    }
  ]
}